ACCOUNT NUMBER,NAME,DBA,ADDRESS,"CITY, STATE, ZIP",BUSINESS TYPE,NAICS,BUSINESS DESCRIPTION,CONTACT,EMPLOYEES,PHONE,STATUS,START,EXPIRE,WEB PAGE
96002801,"BENTSON, VUONA & WESTERSTEN LLP",CERTIFIED PUBLIC ACCOUNTANTS,17 GODDARD,"IRVINE, CA  92618-4600","Professional, Scientific, and Technical Services",54121,ACCOUNTANCY,BRIAN A BENTSON,9,(949)789-1050,LICENSED,9/27/1996 0:00,8/31/2020 0:00, 
49476,JEFFREY L KAYLOR,ACCOUNTANCY CORPORATION,2152 DUPONT DR STE 112,"IRVINE, CA  92612-1315","Professional, Scientific, and Technical Services",54121,ACCOUNTANCY,JEFFREY L KAYLOR,3,(949)442-7300,LICENSED,8/28/1995 0:00,7/31/2020 0:00,KAYLORCPAFP.COM
46324,CHEN ACCOUNTANCY CORP, ,17870 SKY PARK CIR STE 101,"IRVINE, CA  92614-6451","Professional, Scientific, and Technical Services",541211,ACCOUNTANCY,LILY K CHEN,2,(949)757-1957,LICENSED,9/27/1994 0:00,8/31/2020 0:00, 
700569,LISA A STATHES CPA, ,2102 BUSINESS CENTER DR,"IRVINE, CA  92612-1001","Professional, Scientific, and Technical Services",541211,ACCOUNTANCY,LISA A STATHES,1,(949)253-4121,BILLED,1/30/2007 0:00,12/31/2019 0:00, 
96011154,J.D. STAFFORD & ASSOCIATES, ,17310 RED HILL AVE STE 290,"IRVINE, CA  92614-5640","Professional, Scientific, and Technical Services",54121,ACCOUNTANCY,ROGER A WARREN,4,(949)250-1650,LICENSED,5/24/1997 0:00,4/30/2020 0:00, 
503208,17848 SKY PARK CIR LLC, ,17848 SKY PARK CIR STE C,"IRVINE, CA  92614-6135","Professional, Scientific, and Technical Services",541211,ACCOUNTANCY,STEPHEN M ZAMUCEN,1,(949)955-2522,BILLED,12/8/2005 0:00,11/30/2018 0:00,ZAMUCEN.COM
503211,17848 SKY PARK CIR LLC,ZAMUCEN & CURREN,17848 SKY PARK CIR STE C,"IRVINE, CA  92614-6135","Professional, Scientific, and Technical Services",541211,ACCOUNTANCY,STEPHEN M ZAMUCEN,1,(949)955-2522,BILLED,12/8/2005 0:00,11/30/2018 0:00,ZAMUCEN.COM
3274,"POLNER, HADA, MAHER & DUNN",ACCOUNTANCY CORPORATION,20 EXECUTIVE PARK STE 100,"IRVINE, CA  92614-6700","Professional, Scientific, and Technical Services",54121,ACCOUNTANCY CORPORATION,ROBERT Y HADA,5,(949)261-2644,LICENSED,10/18/1977 0:00,6/30/2020 0:00, 
190003126,BEHESHTI ACCOUNTING INC,ALI BEHESHTI,1682 LANGLEY AVE,"IRVINE, CA  92614-5620","Professional, Scientific, and Technical Services",541213,ACCOUNTANT,ALI BEHESHTI,1,(949)383-7426,LICENSED,8/9/2019 0:00,7/31/2020 0:00, 
1300827,"ANNETTE DI BELLO KELLY, CPA, CFP, PC",ATTN  ANNETTE DI BELLO,9870 RESEARCH DR,"IRVINE, CA  92618-4310","Professional, Scientific, and Technical Services",541211,ACCOUNTANT,ANNETTE R DI BELLO,1,(949)716-7050,LICENSED,3/18/2013 0:00,2/29/2020 0:00,DEBELLOCPA.COM
96004870,G ROWLAND CPA & ASSOCIATES AAC, ,2082 BUSINESS CENTER DR STE 172,"IRVINE, CA  92612-1113","Professional, Scientific, and Technical Services",541211,ACCOUNTANT,GERARD R ROWLAND,2,(949)752-1040,LICENSED,12/11/1996 0:00,11/30/2020 0:00, 
190002622,"IRVINE IHC, INC.","INHO CHO, CPA",4860 IRVINE BLVD STE 207,"IRVINE, CA  92620-1900","Professional, Scientific, and Technical Services",541211,ACCOUNTANT,INHO CHO,1,(714)544-3001,LICENSED,7/10/2019 0:00,6/30/2020 0:00, 
99021482,JOHN R PASCOE,ACCOUNTANCY CORPORATION,2222 MARTIN STE 220,"IRVINE, CA  92612-1406","Professional, Scientific, and Technical Services",541211,ACCOUNTANT,JOHN R PASCOE,2,(949)251-1220,BILLED,2/28/2000 0:00,1/31/2020 0:00, 
160000176,JOHNSON TAX & CONSULTING, ,300 SPECTRUM CENTER DR STE 400,"IRVINE, CA  92618-4989","Professional, Scientific, and Technical Services",541211,ACCOUNTANT,LISA JOHNSON,1,(949)424-6242,LICENSED,1/19/2016 0:00,12/31/2020 0:00, 
150007138,JJS SERVICES,ATTN  STEFANNIE KODRAT,54 SANTA CATALINA AISLE,"IRVINE, CA  92606-0860","Professional, Scientific, and Technical Services",54121,ACCOUNTANT,STEFANNIE KODRAT,1,(949)350-8847,LICENSED,9/10/2015 0:00,8/31/2020 0:00, 
190000237,BRIGIM ACCOUNTANTS AND ADVISORS LLP, ,10 CORPORATE PARK STE 320,"IRVINE, CA  92606-5140","Professional, Scientific, and Technical Services",541213,ACCOUNTANT,XIN HUANG,1,(949)288-6668,LICENSED,1/22/2019 0:00,12/31/2020 0:00, 
160004398,FXK FINANCIAL SERVICES,ATTN  FARHAN KOLSY,24 KAZAN ST,"IRVINE, CA  92604-2456","Professional, Scientific, and Technical Services",541213,ACCOUNTANT & TAX PREPARER,FARHAN KOLSY,1,(949)232-2389,LICENSED,12/9/2016 0:00,11/30/2020 0:00, 
180000042,THOMAS K JEON CPA, ,9891 IRVINE CENTER DR STE 200,"IRVINE, CA  92618-4320","Professional, Scientific, and Technical Services",54121,ACCOUNTANT- CERTIFIED PUBLIC,THOMAS K JEON,1,(949)398-8207,BILLED,1/4/2018 0:00,12/31/2019 0:00, 
99041356,HERSOWITZ ACCOUNTANCY CORP,ATTN  SELWYN HERSOWITZ,18936 RACINE DR,"IRVINE, CA  92603-3315","Professional, Scientific, and Technical Services",54121,ACCOUNTANTS,SELWYN HERSOWITZ,3,(949)261-9045,LICENSED,7/23/2001 0:00,6/30/2020 0:00, 
1400021,STEVEN E PHAIR CPA, ,19712 MACARTHUR BLVD STE 222,"IRVINE, CA  92612-2407","Professional, Scientific, and Technical Services",541211,ACCOUNTANTS,STEVEN E PHAIR,7,(949)852-4181,BILLED,12/11/2013 0:00,11/30/2019 0:00, 
140000515,LARRY W LAMB CPA, ,2102 BUSINESS CENTER DR # 215H,"IRVINE, CA  92612-1001","Professional, Scientific, and Technical Services",541211,ACCOUNTANTS  OFFICE,LARRY W LAMB,3,(949)253-4114,BILLED,1/27/2014 0:00,12/31/2019 0:00, 
140000154,GABRIELA MARR, ,15615 ALTON PKWY STE 450,"IRVINE, CA  92618-3308","Professional, Scientific, and Technical Services",541219,ACCOUNTING,GABRIELA MARR,1,(949)482-7520,BILLED,12/27/2013 0:00,11/30/2017 0:00, 
301621,HEIMLER & ASSOCIATES CPA, ,17880 SKY PARK CIR STE 110,"IRVINE, CA  92614-6422","Professional, Scientific, and Technical Services",54121,ACCOUNTING,JEFFREY A HEIMLER,1,(949)252-8192,LICENSED,6/9/2003 0:00,5/31/2020 0:00,HEIMLERCPA.COM
170000086,ESPERO PHARMACEUTICALS INC, ,9881 IRVINE CENTER DR,"IRVINE, CA  92618-4337","Professional, Scientific, and Technical Services",541219,ACCOUNTING,JEFFREY S COLE,3,(904)834-2665,BILLED,1/11/2017 0:00,12/31/2019 0:00, 
170000065,ACCOUNTING FINANCIALS,ACCOUNTING FINANCIALS,16 SPRINGWATER,"IRVINE, CA  92604-4668",Finance and Insurance,522320,ACCOUNTING,MIHAELA MORARU,1,(714)234-3205,BILLED,1/9/2017 0:00,12/31/2017 0:00, 
903206,SUNG H YI CPA, ,4000 BARRANCA PKWY STE 250,"IRVINE, CA  92604-1713","Professional, Scientific, and Technical Services",541211,ACCOUNTING,SUNG YI,1,(877)592-7272,LICENSED,9/29/2009 0:00,8/31/2020 0:00,YICOCPA.COM
190002494,TINA SENTER, ,9 GERANIUM,"IRVINE, CA  92618-6921","Professional, Scientific, and Technical Services",541219,ACCOUNTING,TINA SENTER,1,(310)890-8965,LICENSED,7/1/2019 0:00,6/30/2020 0:00, 
903349,LORI SMITH, ,15 FLORA SPGS,"IRVINE, CA  92602-2412","Professional, Scientific, and Technical Services",541211,ACCOUNTING - CPA,LORI SMITH,1,(714)686-0564, ,10/9/2009 0:00,9/30/2018 0:00, 
160000308,FUTURE INCOME PAYMENT ACCOUNTING LLC, ,18300 VON KARMAN AVE STE 410,"IRVINE, CA  92612-0192","Professional, Scientific, and Technical Services",541219,ACCOUNTING & BOOKKEEPING  SERVICES,SCOTT KOHN,1,(949)313-6365,BILLED,1/28/2016 0:00,12/31/2018 0:00, 
190004606,"MBC ACCOUNTING, INC",MICHAEL CIAURI,4000 BARRANCA PKWY STE 250,"IRVINE, CA  92604-1713","Professional, Scientific, and Technical Services",54121,ACCOUNTING & BOOKKEEPING SERVICES,MICHAEL CIAURI,1,(949)231-2212,LICENSED,11/18/2019 0:00,10/31/2020 0:00, 
170000705,S H SEO INC, ,7595 IRVINE CENTER DR STE 110,"IRVINE, CA  92618-2999","Professional, Scientific, and Technical Services",541110,ACCOUNTING & CONSULTING,SEUNG HYE SEO,1,(213)380-8389,BILLED,2/28/2017 0:00,1/31/2020 0:00, 
1302752,ALLIANCE RESOURCE GROUP STAFFING CORP,ATTN  KARI CARROLL,2525 MAIN ST STE 440,"IRVINE, CA  92614-6681",Administrative and Support and Waste Management,561311,ACCOUNTING & FINANCE RECRUITING SERVICES,JENNIFER BOYER,30,(949)250-1600,LICENSED,9/16/2013 0:00,8/31/2020 0:00,ALLIANCERESOURCEGROUP.COM
180000863,MAXWELL & COMPANY CPAS INC, ,16440 BAKE PKWY STE 150,"IRVINE, CA  92618-4674","Professional, Scientific, and Technical Services",541213,ACCOUNTING & TAX,DEE DODSON,17,(949)453-1521,LICENSED,3/15/2018 0:00,2/29/2020 0:00, 
140000272,JOSEPH C MACALUSO EA, ,12 RED ROCK,"IRVINE, CA  92604-3067","Professional, Scientific, and Technical Services",541219,ACCOUNTING & TAX PREPARATION,JOSEPH MACALUSO,1,(949)559-8781,BILLED,1/13/2014 0:00,12/31/2017 0:00, 
140000889,"PERLE, GAUTSCHI & COMPANY, INC.",CERTIFIED PUBLIC ACCOUNTANTS,2081 BUSINESS CENTER DR STE 110,"IRVINE, CA  92612-1169","Professional, Scientific, and Technical Services",541211,ACCOUNTING & TAX SERVICES,LAWRENCE M. PERLE,6,(949)752-5400,BILLED,3/23/2014 0:00,2/28/2017 0:00, 
1202822,JC & ASSOCIATES APC, ,17320 RED HILL AVE STE 320,"IRVINE, CA  92614-5663","Professional, Scientific, and Technical Services",541211,ACCOUNTING AND ADVISORY SERVICES,JOONSUP CHUNG,3,(949)910-0503,LICENSED,10/1/2012 0:00,9/30/2020 0:00,JCANDASSOC.COM
702334,AJG ACCOUNTING & BOOKKEEPING,SERVICES INC,PO BOX 60337,"IRVINE, CA  92602-6011","Professional, Scientific, and Technical Services",54121,ACCOUNTING AND BOOKKEEPING SERVICES,ALLEN GOH,1,(909)224-1227,LICENSED,8/17/2007 0:00,7/31/2020 0:00,AJGACCOUNTING.COM
702921,KAYA TAX & BOOKKEEPING SERVICES INC, ,16520 BAKE PKWY STE 230,"IRVINE, CA  92618-4689","Professional, Scientific, and Technical Services",54121,ACCOUNTING AND BUSINESS CONSULTING,HAKAN KAYA,5,(949)756-8494,LICENSED,10/10/2007 0:00,9/30/2020 0:00,KAYATAX.COM
600134,MICHAEL MATSUMOTO, ,3972 BARRANCA PKWY # J411,"IRVINE, CA  92606-1204","Professional, Scientific, and Technical Services",541211,ACCOUNTING AND CONSULTING SERVICES,MICHAEL J MATSUMOTO,2,(949)654-1044,BILLED,1/11/2006 0:00,12/31/2019 0:00, 
180003245,YOUNGWOO KIM, ,612 SAINT VINCENT,"IRVINE, CA  92618-3959","Professional, Scientific, and Technical Services",541219,ACCOUNTING AND EDUCATION SERVICES,YOUNGWOO KIM,1,(213)407-9909,BILLED,9/24/2018 0:00,8/31/2019 0:00, 
803539,VINCENTBENJAMIN IRVINE LLC, ,2010 MAIN ST STE 530,"IRVINE, CA  92614-8208","Professional, Scientific, and Technical Services",541219,ACCOUNTING AND FINANCE,BEN HOWARD,37,(949)398-8000,BILLED,12/9/2008 0:00,11/30/2019 0:00,VINCENTBENJAMIN.COM
140000319,PINNACLE SOLUTIONS, ,200 SPECTRUM CENTER DR STE 300,"IRVINE, CA  92618-5004","Professional, Scientific, and Technical Services",541219,ACCOUNTING AND FINANCE,TIM EVERSWICK,3,(949)385-5030,BILLED,1/30/2014 0:00,12/31/2017 0:00,www.pinnacle-na.com
27803,SU LIN CPA INC, ,19 PETERS CANYON RD,"IRVINE, CA  92606-1402","Professional, Scientific, and Technical Services",541211,ACCOUNTING AND FINANCIAL CONSULTING,SU C LIN,1,(949)559-8907,PAID,1/26/1990 0:00,12/31/2019 0:00,MONEYDOCTOR.MD
5234,GANDHI AND CO, ,1 LEAGUE UNIT 60700,"IRVINE, CA  92602-7031","Professional, Scientific, and Technical Services",541690,ACCOUNTING AND FINANCIAL CONSULTING SERVICES,HEMANT V GANDHI,1,(949)857-2718,LICENSED,4/26/1979 0:00,4/30/2020 0:00, 
160004376,M/W GROUP, ,103 RODEO,"IRVINE, CA  92602-1800",Finance and Insurance,52,ACCOUNTING AND FINANCIAL CONSULTING.,STEPHANIE MOORE WHITE,1,(949)422-8345,BILLED,12/8/2016 0:00,11/30/2017 0:00, 
1001529,ACCOUNTING & LEGAL NETWORK INC, ,18952 MACARTHUR BLVD STE 460,"IRVINE, CA  92612-1415","Professional, Scientific, and Technical Services",541219,ACCOUNTING AND FINANCIAL SERVICES,LARRY MICHAELS,3,(949)825-6031,LICENSED,6/8/2010 0:00,5/31/2020 0:00, 
190000569,SOUTHCOAST BOOKKEEPING INC,FINESTONE & FINESTONE,18025 SKY PARK CIR STE A,"IRVINE, CA  92614-0505","Professional, Scientific, and Technical Services",541219,ACCOUNTING AND TAX OFFICE,SANDRA FINESTONE,2,(949)261-6020,LICENSED,2/19/2019 0:00,1/31/2021 0:00, 
1300826,ABREGOV PARRINO LLP, ,5 HUBBLE,"IRVINE, CA  92618-4209","Professional, Scientific, and Technical Services",541211,ACCOUNTING AND TAX PREPARATION,CRAIG PARRINO,8,(949)450-1450,LICENSED,3/18/2013 0:00,2/29/2020 0:00,ABREGOVPARRINO.COM
201230,ALAGHA & ASSOCIATES CORP, ,20 CORPORATE PARK STE 210,"IRVINE, CA  92606-3111","Professional, Scientific, and Technical Services",54121,ACCOUNTING AND TAX PREPARATION,JOHN ALAGHA,1,(949)955-1445,LICENSED,5/31/2002 0:00,4/30/2020 0:00, 
150007107,JOSEPH C MACALUSO EA,ATTN  JOSEPH MACALUSO,12 RED ROCK,"IRVINE, CA  92604-3067","Professional, Scientific, and Technical Services",541213,ACCOUNTING AND TAX PREPARATION,JOSEPH MACALUSO,1,(949)559-8781,LICENSED,9/6/2015 0:00,8/31/2020 0:00, 
160004032,SAM DILLENCOURT,"SAM DILLENCOURT, CPA",7 VIRGIL CT,"IRVINE, CA  92617-4054","Professional, Scientific, and Technical Services",541211,ACCOUNTING AND TAX PREPARATION,SAM DILLENCOURT,1,(949)433-9695,BILLED,11/13/2016 0:00,10/31/2017 0:00, 
160002200,SOPHIA M C YANG & COMPANY CPA, ,17534 VON KARMAN AVE,"IRVINE, CA  92614-6208","Professional, Scientific, and Technical Services",541211,ACCOUNTING AND TAX PREPARATION SERVICE,SOPHIA YANG,7,(949)651-8080,LICENSED,6/27/2016 0:00,3/31/2020 0:00, 
190000509,NITAX INC,NI TAX & ACCOUNTING,PO BOX 14282,"IRVINE, CA  92623-4282","Professional, Scientific, and Technical Services",54121,ACCOUNTING AND TAX PREPARATION SERVICES,ISMAIL DAGDELEN, ,(213)400-0504,BILLED,2/12/2019 0:00,1/31/2020 0:00, 
180003209,PRECISION ACCOUNTING & TAX SERVICE,ATTN  DOROTHY SCHALLER,18 VIEJO,"IRVINE, CA  92612-2624","Professional, Scientific, and Technical Services",541219,ACCOUNTING AND TAX PROFESSIONAL SERVICES,DOROTHY SCHALLER,1,(949)436-9170,LICENSED,9/20/2018 0:00,8/31/2020 0:00, 
190000923,WTC ACCOUNTANCY CORPORATION, ,17744 SKY PARK CIR STE 215,"IRVINE, CA  92614-4481","Professional, Scientific, and Technical Services",54121,ACCOUNTING AND TAX PROFESSIONAL SERVICES,SHUAI WU,1,(657)247-6401,LICENSED,3/15/2019 0:00,2/28/2020 0:00, 
9056,FINESTONE & FINESTONE,BARRY FINESTONE,18025 SKY PARK CIR STE A J,"IRVINE, CA  92614-4417","Professional, Scientific, and Technical Services",54121,ACCOUNTING AND TAX SERVICE,BARRY FINESTONE,2,(949)261-6020,BILLED DELINQUENT,8/10/1981 0:00,7/31/2017 0:00, 
140000518,AEON FINANCIAL & ASSOCIATES INC,MI K LEE CPA,2082 BUSINESS CENTER DR STE 172,"IRVINE, CA  92612-1113","Professional, Scientific, and Technical Services",541211,ACCOUNTING AND TAX SERVICE,MI K LEE,1,(949)825-6414,BILLED,1/24/2014 0:00,12/31/2018 0:00, 
150001677,CHOI & LEE CPAS AND ASSOCIATES,ATTN  SUNGHYUK LEE,20 CORPORATE PARK STE 125,"IRVINE, CA  92606-5182","Professional, Scientific, and Technical Services",541211,ACCOUNTING AND TAX SERVICE,SUNGHYUK LEE,1,(213)380-9993,LICENSED,6/11/2015 0:00,5/31/2020 0:00, 
403211,LEE & CO,ATTN  YONG CHUL LEE,30 CORPORATE PARK STE 315,"IRVINE, CA  92606-5133","Professional, Scientific, and Technical Services",54121,ACCOUNTING AND TAX SERVICE,YONG CHUL LEE,4,(949)756-3500,LICENSED,12/2/2004 0:00,11/30/2020 0:00, 
160000119,CHRISTOPHER HUANG CPAS INC, ,18008 SKY PARK CIR STE 145,"IRVINE, CA  92614-6434","Professional, Scientific, and Technical Services",541211,ACCOUNTING AND TAX SERVICES,CHRISTOPHER HUANG,2,(949)756-8958,LICENSED,12/16/2015 0:00,11/30/2020 0:00, 
1100533,HARRY R STEELE CPA APC, ,3 ABERDEEN ST,"IRVINE, CA  92620-3302","Professional, Scientific, and Technical Services",541211,ACCOUNTING AND TAX SERVICES,HARRY R STEELE,1,(949)336-7744,BILLED,2/25/2011 0:00,1/31/2017 0:00, 
1303432,KORUS CPAS LLP, ,20 CORPORATE PARK STE 330,"IRVINE, CA  92606-5139","Professional, Scientific, and Technical Services",541211,ACCOUNTING AND TAX SERVICES,HYUNSOO CHUN,5,(949)777-6611,LICENSED,11/20/2013 0:00,10/31/2020 0:00,KORUSCPAS.COM
160002977,JEN CHUAN LO,101 ACCOUNTING SERVICES,414 SILK TREE,"IRVINE, CA  92606-4516","Professional, Scientific, and Technical Services",541219,ACCOUNTING AND TAX SERVICES,JEN CHUAN LO,1,(949)501-8849,LICENSED,8/20/2016 0:00,7/31/2020 0:00, 
37670,JERRY A DE AINZA CPA, ,18 MORNING DEW,"IRVINE, CA  92603-3417","Professional, Scientific, and Technical Services",541211,ACCOUNTING AND TAX SERVICES,JERRY A DE AINZA,1,(949)854-9557,LICENSED,8/28/1992 0:00,7/31/2020 0:00, 
170001009,JIE ZENG, ,16755 VON KARMAN AVE STE 200,"IRVINE, CA  92606-4963","Professional, Scientific, and Technical Services",541211,ACCOUNTING AND TAX SERVICES,JIE ZENG,1,(949)236-1685,LICENSED,3/22/2017 0:00,2/29/2020 0:00, 
800267,JP CALIMAN CORPORATION, ,3 CORPORATE PARK STE 250,"IRVINE, CA  92606-5160","Professional, Scientific, and Technical Services",541211,ACCOUNTING AND TAX SERVICES,KIMIHIRO IMAIZUMI,4,(949)878-3551,LICENSED,11/28/2007 0:00,10/31/2020 0:00, 
190003101,REMTAC LLC, ,2082 MICHELSON DR STE 100,"IRVINE, CA  92612-1212","Professional, Scientific, and Technical Services",541211,ACCOUNTING AND TAX SERVICES,LUAT LAM,2,(949)757-3671,LICENSED,8/7/2019 0:00,7/31/2020 0:00, 
1303516,KAPUR CPA GROUP INC, ,15615 ALTON PKWY STE 450,"IRVINE, CA  92618-3308","Professional, Scientific, and Technical Services",541211,ACCOUNTING AND TAX SERVICES,MICHAEL KAPUR,1,(844)445-2787,LICENSED,12/3/2013 0:00,11/30/2020 0:00, 
1002659,ROBERT S BORISH CPA INC, ,6 VENTURE STE 120,"IRVINE, CA  92618-3742","Professional, Scientific, and Technical Services",541211,ACCOUNTING AND TAX SERVICES,ROBERT BORISH,2,(949)951-5002,LICENSED,10/4/2010 0:00,9/30/2020 0:00,1040GUYS.COM
1300140,ROMY J LEE CPA, ,20 CORPORATE PARK STE 295,"IRVINE, CA  92606-3124","Professional, Scientific, and Technical Services",541211,ACCOUNTING AND TAX SERVICES,ROMY LEE,3,(949)955-3388,LICENSED,12/29/2012 0:00,11/30/2020 0:00, 
150007336,"YING H KOLB, CPA, MBT", ,20 TRUMAN ST STE 202,"IRVINE, CA  92620-5767","Professional, Scientific, and Technical Services",541211,ACCOUNTING AND TAXATION,YING H KOLB,1,(949)579-9320,LICENSED,9/25/2015 0:00,8/31/2020 0:00, 
160001798,TKPROS INC,ATTN  TANIA KERIO HAGE,136 PANTHEON,"IRVINE, CA  92620-3817","Professional, Scientific, and Technical Services",541219,ACCOUNTING CONSULTANT/BOOKKEEPING,TANIA KERIO HAGE,1,(818)636-6501,LICENSED,5/24/2016 0:00,4/30/2020 0:00, 
180002930,BAIKAND INC, ,300 SPECTRUM CENTER DR STE 400,"IRVINE, CA  92618-4989","Professional, Scientific, and Technical Services",541219,ACCOUNTING CORPORATION,SEUNG HAN BAIK,1,(949)233-4332,LICENSED,8/27/2018 0:00,7/31/2020 0:00, 
190001063,AURA ACCOUNTING SOLUTIONS,ATTN  BRANDON KORDOWER,15 LOWLAND,"IRVINE, CA  92602-0837","Professional, Scientific, and Technical Services",541219,ACCOUNTING FIRM,BRANDON KORDOWER,7,(949)799-1920,BILLED,3/27/2019 0:00,2/28/2020 0:00, 
800468,SINGER LEWAK, ,2050 MAIN ST FL 7,"IRVINE, CA  92614-8255","Professional, Scientific, and Technical Services",541211,ACCOUNTING FIRM,DAVID KRAJANOWSKI,60,(949)261-8600,LICENSED,12/19/2007 0:00,11/30/2020 0:00,SINGERLEWAK.COM
190000558,AURA ACCOUNTING SOLUTIONS, ,9225 RESEARCH DR,"IRVINE, CA  92618-4286","Professional, Scientific, and Technical Services",541219,ACCOUNTING FIRM,DEREK KORDOWER,4,(949)799-1920,DENIED,2/18/2019 0:00,1/31/2020 0:00, 
1003195,RAIMONDO PETTIT GROUP, ,19200 VON KARMAN AVE STE 850,"IRVINE, CA  92612-8522","Professional, Scientific, and Technical Services",541211,ACCOUNTING FIRM,JACQUES WELCHE,12,(949)419-4612,LICENSED,11/29/2010 0:00,10/31/2020 0:00, 
160000554,RICKMEYER & ASSOCIATES INC,JERRY RICKMEYER,2525 MAIN ST STE 400,"IRVINE, CA  92614-6681","Professional, Scientific, and Technical Services",541211,ACCOUNTING FIRM,JERRY RICKMEYER,14,(949)253-9600,BILLED,2/18/2016 0:00,1/31/2020 0:00, 
170001390,BRYSANI CORPORATION, ,25 MAUCHLY STE 307,"IRVINE, CA  92618-2331","Professional, Scientific, and Technical Services",541219,ACCOUNTING FIRM,NICOLAS PULECIO,2,(949)861-8850,LICENSED,4/21/2017 0:00,3/31/2020 0:00, 
160001478,"BARTELT, JAYNES & VAN PELT", ,2525 MAIN ST STE 400,"IRVINE, CA  92614-6681","Professional, Scientific, and Technical Services",541211,ACCOUNTING FIRM,RACHELLE VAN PELT,8,(949)753-7555,LICENSED,4/25/2016 0:00,3/31/2020 0:00, 
170004477,HCVT LLP,"HOLTHOUSE, CARLIN & VAN TRIGT, LLP",18565 JAMBOREE RD FL 4,"IRVINE, CA  92612-2532",Finance and Insurance,52,ACCOUNTING FIRM,SCOTT STEPHENSON,104,(714)361-7600,LICENSED,12/21/2017 0:00,11/30/2020 0:00, 
1200617,GURSEY / SCHNEIDER LLP, ,2211 MICHELSON DR STE 830,"IRVINE, CA  92612-0302","Professional, Scientific, and Technical Services",541211,ACCOUNTING FIRM,STEPHAN H WASSERMAN,7,(949)265-9900,BILLED,2/21/2012 0:00,1/31/2020 0:00, 
150006630,J ROBERT WEST MD INC,"WEST DERMATOLOGY, LLC",18831 VON KARMAN AVE STE 300,"IRVINE, CA  92612-1536",Administrative and Support and Waste Management,561110,ACCOUNTING OFFICE,CHRIS KANE,11,(949)572-2994,BILLED,7/29/2015 0:00,6/30/2017 0:00, 
140000415,SMA FINANCIAL INC,SIRAJ SOLIMAN,20 TRUMAN ST STE 201,"IRVINE, CA  92620-5766","Professional, Scientific, and Technical Services",541211,ACCOUNTING OFFICE,SABRY ABDEL AZIZ,5,(949)559-0499,LICENSED,1/17/2014 0:00,12/31/2020 0:00, 
96009439,AERONET INC, ,42 CORPORATE PARK STE 100,"IRVINE, CA  92606-3101","Professional, Scientific, and Technical Services",541219,ACCOUNTING OFFICE (NOT CA STATE LICENSED),ANTHONY N PEREIRA,22,(949)474-3000,LICENSED,4/10/1997 0:00,3/31/2020 0:00,AERONET.COM
702845,YUCAIPA VALLEY ACRES LLC, ,2875 MICHELLE  STE 300,"IRVINE, CA  92606-1020",Real Estate and Rental and Leasing,531390,ACCOUNTING OFFICE AND REAL ESTATE HOLDINGS,MATTHEW M CLABAUGH,1,(714)978-1300,LICENSED,10/18/2007 0:00,9/30/2020 0:00, 
190001100,YEIL ACCOUNTING AMERICA LLP, ,1 PARK PLZ STE 350,"IRVINE, CA  92614-2512","Professional, Scientific, and Technical Services",541211,ACCOUNTING OFFICE-CERTIFIED PUBLIC ACCOUNTINTS,CHANGWOO JEONG,1,(949)750-2388,LICENSED,3/29/2019 0:00,2/28/2020 0:00, 
1002084,JLK ROSENBERGER LLP, ,2601 MAIN ST STE 580,"IRVINE, CA  92614-4202","Professional, Scientific, and Technical Services",541211,ACCOUNTING PRACTICE/FIRM,TIM M JOHNSON,17,(949)860-9892,LICENSED,8/4/2010 0:00,7/31/2020 0:00, 
37747,MAYES & MAILLY,CERTIFIED PUBLIC ACCOUNTANTS,2091 BUSINESS CENTER DR STE 130,"IRVINE, CA  92612-1120","Professional, Scientific, and Technical Services",541211,ACCOUNTING SERVICE,ALAN K MAYES,3,(949)752-0410,LICENSED,9/8/1992 0:00,8/31/2020 0:00, 
702251,JAMES Y LEE & CO,ACCOUNTANCY CORPORATION,2855 MICHELLE STE 200,"IRVINE, CA  92606-1011","Professional, Scientific, and Technical Services",54121,ACCOUNTING SERVICE,JAMES LEE,10,(714)669-1400,LICENSED,8/14/2007 0:00,7/31/2020 0:00, 
160000146,LIN AND COMPANY CPA INC, ,4000 BARRANCA PKWY STE 250,"IRVINE, CA  92604-1713","Professional, Scientific, and Technical Services",541211,ACCOUNTING SERVICE,MICHELLE LIN,1,(949)262-3495,BILLED,1/15/2016 0:00,12/31/2019 0:00, 
1301586,SRH FINANCIAL CONSULTANTS, ,9070 IRVINE CENTER DR STE 260,"IRVINE, CA  92618-4692","Professional, Scientific, and Technical Services",541219,ACCOUNTING SERVICE,SAEID HIRBODI,4,(949)587-9890,BILLED,5/23/2013 0:00,4/30/2018 0:00, 
1202376,DAVID Y HAN CPA & CO AC, ,810 ROOSEVELT,"IRVINE, CA  92620-3663","Professional, Scientific, and Technical Services",541211,ACCOUNTING SERVICE,YOON SUNG HAN,1,(949)777-5577,LICENSED,8/16/2012 0:00,7/31/2020 0:00, 
26895,"HALVORSEN, HATCH & CO INC", ,196 TECHNOLOGY DR STE F,"IRVINE, CA  92618-2415","Professional, Scientific, and Technical Services",541211,ACCOUNTING SERVICE - INDEPENDENT INTERNAL AUDITORS,COLLIN L HATCH,2,(949)727-4188,LICENSED,9/27/1989 0:00,8/31/2020 0:00, 
180002736,LIN CHEN,PROFILE TAX AND FINACIAL SOLUTIONS,4840 IRVINE BLVD STE 205,"IRVINE, CA  92620-1962","Professional, Scientific, and Technical Services",541213,"ACCOUNTING SERVICE INCLUDING BOOKKEEPING, TAX PREPARATION",LIN CHEN,3,(949)200-7676,LICENSED,8/8/2018 0:00,7/31/2020 0:00, 
702095,ANNIE CHEN CPA INC, ,4790 IRVINE BLVD STE 105-415,"IRVINE, CA  92620-1973","Professional, Scientific, and Technical Services",541211,ACCOUNTING SERVICES,ANNIE CHEN,2,(949)387-1702,LICENSED,7/26/2007 0:00,6/30/2020 0:00,ANNIECHENCPA.COM
22786,HBLA CERTIFIED PUBLIC,ACCOUNTANTS INC,19600 FAIRCHILD STE 320,"IRVINE, CA  92612-2584","Professional, Scientific, and Technical Services",541211,ACCOUNTING SERVICES,DAVID B LANG,23,(949)833-2815,BILLED,2/23/1988 0:00,1/31/2020 0:00,HBLA.COM
401276,DONNA L ORGERON PC, ,19600 FAIRCHILD STE 350,"IRVINE, CA  92612-2519","Professional, Scientific, and Technical Services",541211,ACCOUNTING SERVICES,DONNA L ORGERON,4,(949)500-5482,LICENSED,4/28/2004 0:00,3/31/2020 0:00,DLOCPA.COM
150007264,ALBERT INDUSTRIES LTD,SUPERIOR HANDFORGE,16160 SCIENTIFIC,"IRVINE, CA  92618-4348",Finance and Insurance,52,ACCOUNTING SERVICES,ERIC ALBERT,2,(562)941-1500,LICENSED,9/21/2015 0:00,8/31/2020 0:00, 
96017354,AFP SADDINGTON LLP, ,18201 VON KARMAN AVE STE 450,"IRVINE, CA  92612-1195","Professional, Scientific, and Technical Services",541211,ACCOUNTING SERVICES,HUGH M SADDINGTON,21,(949)475-5800,LICENSED,11/6/1997 0:00,9/30/2020 0:00,SSLLP.BIZ
38410,JACK L GAAR,CERTIFIED PUBLIC ACCOUNTANT,2070 BUSINESS CENTER DR STE 100,"IRVINE, CA  92612-1112","Professional, Scientific, and Technical Services",541211,ACCOUNTING SERVICES,JACK L GAAR,2,(949)476-8801,LICENSED,12/16/1992 0:00,11/30/2020 0:00, 
36192,JACKIE D PACE CPA,CERTIFIED PUBLIC ACCOUNTANTS,10 NANTUCKET,"IRVINE, CA  92620-2639","Professional, Scientific, and Technical Services",54121,ACCOUNTING SERVICES,JACKIE D PACE,1,(949)552-2060,LICENSED,6/2/1992 0:00,5/31/2020 0:00, 
21958,JAMES ELIADES JR CPA, ,18818 TELLER AVE STE 230,"IRVINE, CA  92612-1680","Professional, Scientific, and Technical Services",541211,ACCOUNTING SERVICES,JAMES ELIADES JR,4,(949)852-8872,LICENSED,9/16/1987 0:00,8/31/2020 0:00, 
140002883,ACTUAL ACCOUNTING INC, ,2070 BUSINESS CENTER DR STE 275,"IRVINE, CA  92612-1148","Professional, Scientific, and Technical Services",541219,ACCOUNTING SERVICES,JAMSHID MOZAFARI,2,(949)932-0655,LICENSED,9/23/2014 0:00,8/31/2020 0:00, 
1100960,JEFFREY C. DORSEY & ASSOC, ,2070 BUSINESS CENTER DR STE 130,"IRVINE, CA  92612-1150","Professional, Scientific, and Technical Services",541211,ACCOUNTING SERVICES,JEFFREY C DORSEY,2,(949)955-0666,LICENSED,4/4/2011 0:00,3/31/2020 0:00, 
1102263,J & M ACCOUNTANCY CORPORATION, ,14262 WYETH AVE,"IRVINE, CA  92606-1838","Professional, Scientific, and Technical Services",541211,ACCOUNTING SERVICES,JIE CHEN,1,(714)787-8124,LICENSED,8/18/2011 0:00,7/31/2020 0:00, 
303047,DIEHL & COMPANY,AN ACCOUNTING CORPORATION,2151 MICHELSON DR STE 160,"IRVINE, CA  92612-1377","Professional, Scientific, and Technical Services",54121,ACCOUNTING SERVICES,JOHN W DIEHL JR,5,(949)250-1400,BILLED,11/10/2003 0:00,10/31/2018 0:00,DIEHLNAIR.COM
1000991,JOSHUA MILLER, ,5 PALLAZO CIR,"FOOTHILL RANCH, CA  92610-1930","Professional, Scientific, and Technical Services",541211,ACCOUNTING SERVICES,JOSHUA H MILLER,1,(949)370-3113,LICENSED,4/12/2010 0:00,3/31/2020 0:00, 
1201909,DAVID JIN CPA PC,IAMC,420 EXCHANGE STE 250,"IRVINE, CA  92602-1321","Professional, Scientific, and Technical Services",541211,ACCOUNTING SERVICES,JUNGHOON JIN,4,(714)505-8377,LICENSED,6/25/2012 0:00,5/31/2020 0:00, 
160002771,KATHLEEN C MAHER, ,1252 QUAIL RDG,"IRVINE, CA  92603-4242",Other Services (except Public Administration),81,ACCOUNTING SERVICES,KATHLEEN C MAHER,1,(949)400-9320,BILLED,8/8/2016 0:00,7/31/2017 0:00, 
25919,L DAVID HERGENREDER,CERTIFIED PUBLIC ACCOUNTANT,6 VENTURE STE 120,"IRVINE, CA  92618-3742","Professional, Scientific, and Technical Services",541211,ACCOUNTING SERVICES,L DAVID HERGENREDER,1,(949)430-7800,LICENSED,5/23/1989 0:00,4/30/2020 0:00, 
99037313,JL ACCOUNTING SERVICES,ATTN  LARRY S WELLS,4822 WINVALE AVE,"IRVINE, CA  92604-2477","Professional, Scientific, and Technical Services",54121,ACCOUNTING SERVICES,LARRY S WELLS,2,(949)552-5239,BILLED,4/17/2001 0:00,3/31/2019 0:00,JLAS.NET
190004490,AFA AMERICA'S FINANCIAL ADVISORS INC., ,17901 VON KARMAN AVE STE 600,"IRVINE, CA  92614-5249","Professional, Scientific, and Technical Services",541219,ACCOUNTING SERVICES,LAWRENCE REUSING,1,(949)246-1025,LICENSED,11/8/2019 0:00,10/31/2020 0:00, 
902571,MARC F BLYTHE CPA,BLYTHE GLOBAL ADVISORS LLC,19800 MACARTHUR BLVD STE 300,"IRVINE, CA  92612-2479","Professional, Scientific, and Technical Services",541219,ACCOUNTING SERVICES,MARC BLYTHE,1,(949)757-4180,LICENSED,8/5/2009 0:00,7/31/2020 0:00, 
190001909,ARMANINO LLP, ,18101 VON KARMAN AVE STE 1440,"IRVINE, CA  92612-0176","Professional, Scientific, and Technical Services",541211,ACCOUNTING SERVICES,MATTHEW ARMANINO,969,(925)790-2600,LICENSED,5/22/2019 16:24,4/30/2020 0:00, 
170001548,ABSTRACT ACCOUNTING AND TAX SERVICE, ,18 TRUMAN ST STE 200,"IRVINE, CA  92620-7705","Professional, Scientific, and Technical Services",54121,ACCOUNTING SERVICES,NICOLE DAVIS,1,(949)786-5512,BILLED,5/4/2017 0:00,4/30/2019 0:00, 
140002182,NAGANO MORITA LLP, ,18200 VON KARMAN AVE STE 790,"IRVINE, CA  92612-7160","Professional, Scientific, and Technical Services",541211,ACCOUNTING SERVICES,NOZOMU HATAYAMA,15,(949)474-9901,LICENSED,7/21/2014 0:00,6/30/2020 0:00,www.nagano-morita.com
30685,MC CARTHY & ASSOCIATES,CERTIFIED PUBLIC ACCOUNTANT,2361 CAMPUS DR STE 150,"IRVINE, CA  92612-1463","Professional, Scientific, and Technical Services",541211,ACCOUNTING SERVICES,RICK MC CARTHY,1,(949)975-0944,BILLED,12/13/1990 0:00,11/30/2018 0:00,MCCARTHYCPA.COM
180001203,N & R SERVICES,ATTN  SUKSHAM GAUR,17481 TEACHERS AVE,"IRVINE, CA  92614-6653","Professional, Scientific, and Technical Services",54121,ACCOUNTING SERVICES,SUKSHAM GAUR,1,(949)351-3662,BILLED,4/10/2018 0:00,3/31/2019 0:00, 
180002530,TAX AND ACCOUNTING SOLUTION,ATTN  ALEXANDER CYRUS,915 W FOOTHILL BLVD STE C-300,"CLAREMONT, CA  91711-3356","Professional, Scientific, and Technical Services",54121,"ACCOUNTING SERVICES (BOOKKEEPING, TAX PREP AND PAYROLL)",ALEXANDER CYRUS,1,(949)407-8050,LICENSED,7/16/2018 0:00,6/30/2020 0:00, 
170000353,ADVANCED ACCOUNTING AND TAX SERVICES, ,28 LOS INDIOS,"IRVINE, CA  92618-8863","Professional, Scientific, and Technical Services",541219,"ACCOUNTING SERVICES: BOOK KEEPING, TAX...",PAULINE HUANG,1,(714)726-1231,BILLED,1/31/2017 0:00,12/31/2018 0:00, 
500223,ACCOUNTING SOFTWARE 411 LLC, ,3943 IRVINE BLVD # 110,"IRVINE, CA  92602-2400","Professional, Scientific, and Technical Services",541690,ACCOUNTING SOFTWARE,ROBERT M VIRGA,1,(949)732-0425,LICENSED,1/20/2005 0:00,12/31/2020 0:00,ACCOUNTINGSOFTWARE411.COM
47956,ACCOUNTING SUPPORT ASSOCIATES,ATTN  DARLENE H KAREN,10 APRILLA,"IRVINE, CA  92614-0229","Professional, Scientific, and Technical Services",541219,ACCOUNTING SUPPORT,DARLENE H KAREN,1,(949)752-5777,LICENSED,3/23/1995 0:00,2/29/2020 0:00, 
901258,EMCOR FACILITIES SERVICES INC, ,2 CROMWELL,"IRVINE, CA  92618-1816","Professional, Scientific, and Technical Services",541219,ACCOUNTING SUPPORT SERVICES,ANTHONY GUZZI,26,(877)992-8362,LICENSED,4/20/2009 0:00,3/31/2020 0:00,EMCORGROUP.COM
901326,CBIZ ACCOUNTING TAX & ADVISORY,OF SAN DIEGO LLC,2301 DUPONT DR STE 200,"IRVINE, CA  92612-7503","Professional, Scientific, and Technical Services",541211,ACCOUNTING TAX AND ADVISORY,CRAIG JURECKA,17,(949)450-4400,LICENSED,4/22/2009 0:00,3/31/2020 0:00, 
96001622,MIHALOVICH-GERSTNER,ACCOUNTING & BOOKKEEPING SERVICE,15312 NIMES CIR,"IRVINE, CA  92604-3131","Professional, Scientific, and Technical Services",54121,"ACCOUNTING, AUDITING AND BOOKKEEPING",TERRI MIHALOVICH-GERSTNER,1,(949)653-8922,LICENSED,8/19/1996 0:00,6/30/2020 0:00, 
96015555,GRODSKY & ASSOCIATES,ACCOUNTANCY CORP,19712 MACARTHUR BLVD STE 230,"IRVINE, CA  92612-2407","Professional, Scientific, and Technical Services",541211,"ACCOUNTING, AUDITING, AND BOOKKEEPING",EDWARD GRODSKY,2,(949)251-8500,LICENSED,9/17/1997 0:00,8/31/2020 0:00, 
98003047,WM GARY CROUCH ACCOUNTANCY CORP, ,2875 MICHELLE STE 300,"IRVINE, CA  92606-1020","Professional, Scientific, and Technical Services",541211,"ACCOUNTING, AUDITING, AND BOOKKEEPING",WM GARY CROUCH,1,(714)978-1300,LICENSED,9/28/1998 0:00,8/31/2020 0:00, 
170002173,SAATI ACCOUNTING,SAATI ACCOUNTING,3857 BIRCH ST # 406,"NEWPORT BEACH, CA  92660-2616","Professional, Scientific, and Technical Services",541213,"ACCOUNTING, AUDITING, INCOME TAX PLANNING, PAYROLL SERVICE,AND FINANCIAL CONSULTING",AMIR SAATI,1,(949)355-1228,BILLED,6/22/2017 0:00,5/31/2018 0:00, 
160003274,AB FINANCIAL SERVICES,ATTN  ELAHEH AFSHAR,24941 DOVE TREE LN,"LAKE FOREST, CA  92630-3210","Professional, Scientific, and Technical Services",54121,"ACCOUNTING, BOOKKEEPING AND TAX SERVICES",ELAHEH AFSHAR,1,(949)395-1021,LICENSED,8/24/2016 0:00,7/31/2020 0:00, 
190000196,VIRTUAL TAX CONSULTANTS,VIRTUAL TAX CONSULTANTS,2372 MORSE AVE STE 572,"IRVINE, CA  92614-6234","Professional, Scientific, and Technical Services",541219,"ACCOUNTING, BOOKKEEPING, AND TAX RETURN PREPARATION SERVICES (NAICS: 541219)",STEVE V TSOLAKIS,1,(949)520-0420,BILLED,1/18/2019 0:00,12/31/2019 0:00, 
160000446,ALI ASGHAR CPA, ,PO BOX 16096,"IRVINE, CA  92623-6096","Professional, Scientific, and Technical Services",541211,"ACCOUNTING, BOOKKEEPING, TAX PREPARATION AND RELATED SERVICES",ALI ASGHAR,1,(949)777-6415,BILLED,2/9/2016 0:00,1/31/2020 0:00, 
190004927,A WISE GROUP,MARYBEL GOMEZ,2400 BARRANCA PKWY # 460,"IRVINE, CA  92606-5018","Professional, Scientific, and Technical Services",54121,"ACCOUNTING, BOOKKEEPING, TAXES",MARYBEL GOMEZ,1,(949)456-4933,LICENSED,12/10/2019 0:00,11/30/2020 0:00, 
190001646,UNIVERSAL TAX AND CONSULTING INC, ,14795 JEFFREY RD STE 105,"IRVINE, CA  92618-0417","Professional, Scientific, and Technical Services",541213,"ACCOUNTING, TAX AND CONSULTING SERVICES",MINJUN XU,1,(626)873-1129,LICENSED,5/6/2019 0:00,4/30/2020 0:00, 
190004993,KW TBS INC,CHRIS WATANABE,18818 TELLER AVE STE 210,"IRVINE, CA  92612-1611",Finance and Insurance,521110,"ACCOUNTING, TAX AND PAYROLL",CHRISTOPHER WATANABE,3,(714)385-9691,NEW,12/16/2019 15:27,11/30/2020 0:00, 
140001007,"DUNCAN & DE BENEDETTO BUSINESS SERVICES, INC.", ,18831 VON KARMAN AVE STE 260,"IRVINE, CA  92612-6530","Professional, Scientific, and Technical Services",541213,"ACCOUNTING, TAX PREPARATION, BOOKEEPING",ROBERT S. DUNCAN,1,(949)833-8294,BILLED,3/29/2014 0:00,2/28/2017 0:00, 
99027962,HASKELL & WHITE LLP, ,300 SPECTRUM CENTER DR STE 300,"IRVINE, CA  92618-4987","Professional, Scientific, and Technical Services",541211,"ACCOUNTING, TAX PREPARATION, BOOKKEEPING AND PAYROLL SERVICES",WAYNE R PINNELL,75,(949)450-6200,LICENSED,8/10/2000 0:00,7/31/2020 0:00,HWCPA.COM
180001711,GLOBAL GATE LLC,SAFWAN ALSAIAD,370 GODDARD,"IRVINE, CA  92618-4601","Professional, Scientific, and Technical Services",54121,"ACCOUNTING, TAX PREPARATION, BOOKKEEPING, AND PAYROLL SERVICES",SAFWAN ALSAIAD,1,(949)232-8308,DENIED,5/20/2018 0:00,4/30/2020 0:00, 
150000152,KEITH BONG CFA CPA, ,780 ROOSEVELT,"IRVINE, CA  92620-3660","Professional, Scientific, and Technical Services",541211,"ACCOUNTING, TAX, AND FINANCIAL ADVISORY",KEITH BONG,1,(714)276-0905,BILLED,1/20/2015 0:00,12/31/2019 0:00,www.toppercpa.com
180003878,NKSFB LLC,"FOCUS FINANCIAL PARTNERS, LLC",300 SPECTRUM CENTER DR STE 675,"IRVINE, CA  92618-4991","Professional, Scientific, and Technical Services",541219,ACCOUNTING/BOOKKEEPING SERVICES,MARK SEGAL,13,(310)229-0236,LICENSED,11/19/2018 0:00,10/31/2020 0:00, 
180000283,ANTHONY J AZAVEDO, ,18021 SKY PARK CIR STE D,"IRVINE, CA  92614-6574","Professional, Scientific, and Technical Services",54121,ACCOUNTING/TAXES,ANTHONY J AZAVEDO,4,(949)250-0562,LICENSED,1/2/2018 0:00,12/31/2020 0:00, 
170001023,THE CHICAGO SCHOOL OF PROFESSIONAL PSYCHOLOGY,TCSPP,4199 CAMPUS DR STE 400,"IRVINE, CA  92612-4691",Educational Services,611310,ACCREDITED NON-PROFIT INSTITUTION THAT PROVIDES EDUCATION,BRITTKNEE MCFARLAND,30,(949)769-7700,DENIED,3/24/2017 0:00,2/28/2018 0:00, 
190004327,KWANG HOON PARK & CO ACCOUNTANCY CORPORATION,KWANGHOON PARK,13845 ALTON PKWY STE A-101,"IRVINE, CA  92618-1650","Professional, Scientific, and Technical Services",541219,TAX & ACCOUNTING SERVICE,KWANG HOON PARK,1,(949)441-6900,DENIED,10/24/2019 0:00,9/30/2020 0:00, 
190002044,"WILLIAM PROMLAP, CPA, A PROFESSIONAL CORPORATION", ,141 CARMINE,"IRVINE, CA  92618-0878","Professional, Scientific, and Technical Services",541211,TAX & ACCOUNTING SERVICES,WILLIAM PROMLAP,1,(949)466-2519,LICENSED,6/3/2019 0:00,5/31/2020 0:00, 
190001689,BAYYA TAX & ACCOUNTING, ,200 SPECTRUM CENTER DR STE 300,"IRVINE, CA  92618-5004","Professional, Scientific, and Technical Services",54121,TAX & BOOKKEEPING SERVICE,MARK BAYYA,1,(949)614-0690,LICENSED,5/9/2019 0:00,4/30/2020 0:00, 
190002892,"DAVID J. ELBAZ-DECKEL, ESQ.",ELBAZ-DECKEL CONSULTING,235 TERRA COTTA,"IRVINE, CA  92603-0607","Professional, Scientific, and Technical Services",541110,TAX & BUSINESS CONSULTING,DAVID ELBAZ-DECKEL,1,(818)512-6400,PENDING,7/25/2019 0:00,6/30/2020 0:00, 
170000580,THE 1040 GAL,ATTN  SALLY CRYSTAL,18 IBIZA AISLE,"IRVINE, CA  92614-0266","Professional, Scientific, and Technical Services",541219,TAX ACCOUNTANT,SALLY CRYSTAL,1,(949)929-4644,BILLED,2/21/2017 0:00,1/31/2019 0:00, 
170003517,THE TAXX GAL,ATTN  SALLY CRYSTAL,18 IBIZA AISLE,"IRVINE, CA  92614-0266","Professional, Scientific, and Technical Services",541213,"TAX ACCOUNTANT\PREPARER & CORPORATION FORMATION, BUSINESS SERVICES",SALLY CRYSTAL,1,(949)929-4644,LICENSED,10/5/2017 0:00,9/30/2020 0:00, 
170002284,"DOO JIN BAE, CPA", ,780 ROOSEVELT STE 110,"IRVINE, CA  92620-3660","Professional, Scientific, and Technical Services",541219,TAX AND ACCOUNTING SERVICE,DOO JIN BAE,1,(773)301-9508,LICENSED,7/3/2017 0:00,6/30/2020 0:00, 
1200796,DALMACIO ACCOUNTANCY CORP, ,30 CORPORATE PARK STE 102,"IRVINE, CA  92606-5132","Professional, Scientific, and Technical Services",541211,TAX AND ACCOUNTING SERVICES,EMMANUEL DALMACIO,4,(949)336-1345,LICENSED,3/8/2012 0:00,2/29/2020 0:00,DALMACIOCPA.COM
1002668,ISHII & THAI LLP, ,2020 MAIN ST STE 990,"IRVINE, CA  92614-8202","Professional, Scientific, and Technical Services",541211,TAX AND ACCOUNTING SERVICES,KENT ISHII,1,(949)863-0400,LICENSED,10/4/2010 0:00,9/30/2020 0:00,ISHIICPA.COM
190000466,DAVIS DIDONATO PERDANA AND ASSOCIATES, ,18 TRUMAN ST STE 200,"IRVINE, CA  92620-7705","Professional, Scientific, and Technical Services",54121,TAX AND ACCOUNTING SERVICES,NICOLE DAVIS,1,(949)531-1218,BILLED,2/11/2019 0:00,1/31/2020 0:00, 
150000081,LEUNG TAX CONSULTING INC, ,25 MAUCHLY  STE 311,"IRVINE, CA  92618-2331","Professional, Scientific, and Technical Services",54121,TAX AND ACCOUNTING SERVICES,PATRICIA LEUNG,1,(949)430-0338,BILLED,1/9/2015 0:00,12/31/2019 0:00,www.leungtax.com
190005052,DIMERY TAX,PATRICIA DIMERY,4133 FARQUHAR AVE,"LOS ALAMITOS, CA  90720-3716","Professional, Scientific, and Technical Services",541110,TAX AND BOOKKEEPING SERVICES.. NO OFFICE IN IRVINE.,PATRICIA DIMERY,0,(562)417-3302,NEW,12/21/2019 8:29,11/30/2020 0:00, 
1103105,JCC GROUP INC, ,9070 IRVINE CENTER DR STE 145,"IRVINE, CA  92618-4690","Professional, Scientific, and Technical Services",541110,TAX AND BUSINESS ADVISORY SERVICES,CRIS DE LA CRUZ,5,(949)861-4290,LICENSED,11/30/2011 0:00,10/31/2020 0:00,JCCGROUPINC.COM
402393,RANDALL YOSHIMOTO CPA MS, ,1 PARK PLZ STE 600,"IRVINE, CA  92614-5987","Professional, Scientific, and Technical Services",54121,TAX AND BUSINESS CONSULTING,RANDALL YOSHIMOTO,1,(909)444-7781,LICENSED,8/2/2004 0:00,7/31/2020 0:00, 
302538,RSM US WEALTH MANAGEMENT, ,18401 VON KARMAN AVE FL 5,"IRVINE, CA  92612-1542","Professional, Scientific, and Technical Services",54121,TAX AND CONSULTING SERVICES,JOSEPH ADAMS,84,(563)324-0447,LICENSED,8/19/2003 0:00,7/31/2020 0:00,MCGLADREY.COM
190003003,SK ENTERPRISES TAX LLC, ,20 PACIFICA STE 255,"IRVINE, CA  92618-3377","Professional, Scientific, and Technical Services",541213,TAX CONSULTANT,UMAIR KHAN,2,(949)336-1277,LICENSED,7/17/2019 0:00,6/30/2020 0:00, 
160004232,SONGHYUN TAX SERVICE IRVINE INC, ,43 CORPORATE PARK STE 105,"IRVINE, CA  92606-5137","Professional, Scientific, and Technical Services",541213,TAX CONSULTING,"MYOUNG KIL, ROH",2,(949)302-2423,LICENSED,11/18/2016 0:00,10/31/2020 0:00, 
180002349,RYAN LLC, ,300 SPECTRUM CENTER DR STE 1060,"IRVINE, CA  92618-4988","Professional, Scientific, and Technical Services",541990,TAX CONSULTING SERVICE AND SOFTWARE LICENSING,G BRINT RYAN,9,(972)934-0022,LICENSED,7/8/2018 0:00,6/30/2020 0:00, 
180003845,TAX RISE LLC, ,19900 MACARTHUR BLVD STE 280,"IRVINE, CA  92612-2461","Professional, Scientific, and Technical Services",541213,TAX DEBT RELIEF SERVICES,ESSAM ABDULLAH,10,(949)556-0742,BILLED,11/14/2018 0:00,10/31/2019 0:00, 
180000577,VENTURE TAX GROUP LLP, ,18565 JAMBOREE RD STE 400,"IRVINE, CA  92612-2562","Professional, Scientific, and Technical Services",541110,TAX LAW,ROBERT HAMILTON,1,(949)296-3322,BILLED,2/21/2018 0:00,1/31/2020 0:00, 
180000441,EAST WEST TAX SOLUTIONS,ATTN  JIANGUO CHEN,175 OVAL RD,"IRVINE, CA  92604-2461","Professional, Scientific, and Technical Services",541690,TAX POLICY CONSULTANT,JIANGUO CHEN,1,(949)394-7688,LICENSED,1/23/2018 0:00,12/31/2020 0:00, 
170004125,FIDELITY TAX RELIEF LLC,FIDELITY TAX RELIEF IRVINE,19900 MACARTHUR BLVD STE 280,"IRVINE, CA  92612-2461","Professional, Scientific, and Technical Services",541213,TAX PREPARATION,ESSAM ABDULLAH,10,(949)933-0103,BILLED,11/17/2017 0:00,10/31/2018 0:00, 
302965,SEMAPHORE TAX STRATEGIES,M SQUARED A LLP,16420 BAKE PKWY,"IRVINE, CA  92618-4665","Professional, Scientific, and Technical Services",54121,TAX PREPARATION,MICHAEL E LIM,2,(949)305-5000,LICENSED,10/15/2003 0:00,9/30/2020 0:00,SEMAPHORETAX.COM
180002449,MICHELLE JOHNSON, ,2 PETALUMA,"IRVINE, CA  92602-1041","Professional, Scientific, and Technical Services",541213,TAX PREPARATION,MICHELLE C JOHNSON,1,(714)425-2204,LICENSED,7/13/2018 0:00,6/30/2020 0:00, 
190004868,"RICH & COMPANY, INC.",MIKE RICH,101 PACIFICA STE 210,"IRVINE, CA  92618-3337","Professional, Scientific, and Technical Services",541211,TAX PREPARATION,MIKE RICH,1,(949)777-6797,LICENSED,12/5/2019 0:00,11/30/2020 0:00, 
150008271,THE TAXPERTS & COMPANY,ATTN  OLIVER KIM,63 LILAC,"LAKE FOREST, CA  92630-1439","Professional, Scientific, and Technical Services",541213,TAX PREPARATION,OLIVER KIM,1,(949)943-3890,LICENSED,12/17/2015 0:00,11/30/2020 0:00, 
190003564,ALLIANCE INCOME TAX,TERRY COLEMAN,14851 JEFFREY RD SPC 42,"IRVINE, CA  92618-8042","Professional, Scientific, and Technical Services",541213,TAX PREPARATION,TERRY L COLEMAN,1,(609)954-2645,LICENSED,9/6/2019 0:00,8/31/2020 0:00, 
180000176,TINA CHAN FERRANTE CPA, ,39 DIAMOND,"IRVINE, CA  92620-2143","Professional, Scientific, and Technical Services",541213,TAX PREPARATION,TINA CHAN FERRANTE,1,(949)878-8891,BILLED,1/12/2018 0:00,12/31/2019 0:00, 
170003466,ELLERD INC,ELLERD BUSINESS SERVICES,48 TESLA,"IRVINE, CA  92618-4603","Professional, Scientific, and Technical Services",541213,TAX PREPARATION & BOOKKEEPING,MICHAEL DOBBS,2,(714)847-5333,DENIED,9/6/2017 0:00,8/31/2018 0:00, 
190000268,OTAS INC,OZAWA TAX & ACCOUNTING,16755 VON KARMAN AVE STE 200,"IRVINE, CA  92606-4963","Professional, Scientific, and Technical Services",541213,TAX PREPARATION AND ACCOUNTING SERVICE,TAKESHI OZAWA,1,(424)200-2889,LICENSED,1/23/2019 0:00,12/31/2020 0:00, 
600613,NEERU BUSINESS SERVICES, ,15510 ROCKFIELD BLVD STE B100,"IRVINE, CA  92618-2730","Professional, Scientific, and Technical Services",54121,TAX PREPARATION AND BOOKEEPING,MARK M ALSAFAR,2,(949)387-5175,DENIED,2/22/2006 0:00,1/31/2018 0:00, 
300600,SEARS TAX SERVICE, ,18 TRUMAN ST STE 200,"IRVINE, CA  92620-7705","Professional, Scientific, and Technical Services",54121,TAX PREPARATION AND BOOKKEEPING SERVICES,MIKE SEARS,1,(949)679-4048, ,2/26/2003 0:00,1/31/2017 0:00, 
503028,LEVY ACCOUNTING INC,YOSEF LEVY,2361 CAMPUS DR STE 99,"IRVINE, CA  92612-1465","Professional, Scientific, and Technical Services",54121,TAX PREPARATION AND CONSULTING SERVICES,YOSEF LEVY,1,(949)743-2060,LICENSED,11/10/2005 0:00,5/31/2020 0:00,LEVYACCOUNTING.COM
800137,DYNASTY TAX SERVICES, ,31 WOODLEAF,"IRVINE, CA  92614-7059","Professional, Scientific, and Technical Services",541213,TAX PREPARATION AND REPRESENTATION,JOYCE E CHENG,2,(949)346-6536,BILLED,11/7/2007 0:00,10/31/2017 0:00, 
150008248,A2Z TAX & FINANCIALS INC,A2Z REALTY GROUP,14200 CULVER DR STE 285,"IRVINE, CA  92604-0329","Professional, Scientific, and Technical Services",541213,TAX PREPARATION SERVICES,ASHKAN ZAHABI,1,(714)907-6248,LICENSED,12/16/2015 0:00,11/30/2020 0:00, 
1001309,SUREPREP LLC, ,17890 SKY PARK CIR STE 100,"IRVINE, CA  92614-4493","Professional, Scientific, and Technical Services",541211,TAX PREPARATION SERVICES,DAVID A WYLE,13,(949)863-2000,LICENSED,5/19/2010 0:00,4/30/2020 0:00, 
170001247,KDV INCOME TAX,ATTN  JEFFREY Q TRAN,20 RIVERSIDE,"IRVINE, CA  92602-0903","Professional, Scientific, and Technical Services",541213,TAX PREPARATION SERVICES,JEFFREY Q TRAN,1,(714)312-6753,LICENSED,4/11/2017 0:00,3/31/2020 0:00, 
1103242,HRB TAX GROUP INC,H & R BLOCK,4330 BARRANCA PKWY STE 150A,"IRVINE, CA  92604-1704","Professional, Scientific, and Technical Services",541213,TAX PREPARATION SERVICES,JULIO LEAL,5,(816)759-0002,LICENSED,12/1/2011 0:00,11/30/2020 0:00, 
1103243,HRB TAX GROUP INC,H & R BLOCK,4255 CAMPUS DR STE B142,"IRVINE, CA  92612-8652","Professional, Scientific, and Technical Services",541213,TAX PREPARATION SERVICES,JULIO LEAL,2,(816)504-1827,LICENSED,12/1/2011 0:00,11/30/2020 0:00, 
1103244,HRB TAX GROUP INC,BLOCK ADVISORS,2646 DUPONT DR # C20,"IRVINE, CA  92612-8887","Professional, Scientific, and Technical Services",541213,TAX PREPARATION SERVICES,TINA HENSON,13,(816)504-1827,LICENSED,12/1/2011 0:00,11/30/2020 0:00, 
1103245,HRB TAX GROUP INC,H & R BLOCK,3971 IRVINE BLVD STE 100,"IRVINE, CA  92602-2483","Professional, Scientific, and Technical Services",541213,TAX PREPARATION SERVICES,TINA HENSON,8,(816)504-1827,LICENSED,12/1/2011 0:00,11/30/2020 0:00, 
1103246,HRB TAX GROUP INC,H & R BLOCK,14220 CULVER DR STE C,"IRVINE, CA  92604-0311","Professional, Scientific, and Technical Services",541213,TAX PREPARATION SERVICES,TINA HENSON,2,(816)504-1827,LICENSED,12/1/2011 0:00,11/30/2020 0:00, 
160001721,AFSHIN R MALEKI CPA,VIRTUAL CFO SERVICES,18881 VON KARMAN AVE STE 1440,"IRVINE, CA  92612-8558","Professional, Scientific, and Technical Services",541211,"TAX PREPARATION, ACCOUNTING & CONSULTING SERVICES.",AFSHIN R MALEKI,1,(949)251-0093,LICENSED,5/17/2016 0:00,4/30/2020 0:00, 
150000597,RGP TAX & ACCOUNTING SOLUTION,ATTN  ROWENA PADUA,321 SAN MARINO # 321,"IRVINE, CA  92614-0214","Professional, Scientific, and Technical Services",541213,TAX PREPARER,ROWENA PADUA,1,(949)701-5588,BILLED,3/1/2015 0:00,2/28/2019 0:00, 
1000254,SHP SERVICES LLC, ,20 VALENTE,"IRVINE, CA  92602-1633","Professional, Scientific, and Technical Services",541219,TAX PREPARER / BOOKKEEPER,SHOBHANA J MEHTA,1,(714)812-2948,BILLED,1/25/2010 0:00,12/31/2018 0:00, 
180001641,ALLEVIATE TAX, ,4 PARK PLZ STE 2050,"IRVINE, CA  92614-8603","Professional, Scientific, and Technical Services",541213,TAX PREPERATION,GEORGE BASELUOS,15,(949)304-1993,LICENSED,5/15/2018 0:00,4/30/2020 0:00, 
1001634,BONNIE L HERMAN CPA, ,5319 UNIVERSITY DR # 131,"IRVINE, CA  92612-2965","Professional, Scientific, and Technical Services",541213,TAX RETURN PREPARATION,BONNIE HERMAN,1,(949)679-7270,LICENSED,6/17/2010 0:00,5/31/2020 0:00, 
150008308,TAX SERVICES OF AMERICA INC/JACKSON HEWITT,TAX SERVICE (AT WALMART),71 TECHNOLOGY DR,"IRVINE, CA  92618-2346","Professional, Scientific, and Technical Services",541213,TAX RETURN PREPARATION SERVICE,JAY L BENGE,2,(407)691-0004,LICENSED,12/4/2015 0:00,11/30/2020 0:00, 
170004074,"TAX SERVICES OF AMERICA, INC.",JACKSON HEWITT TAX SERVICE,16555 VON KARMAN AVE STE A,"IRVINE, CA  92606-4928",Finance and Insurance,52,TAX RETURN PREPARATION SERVICES LOCATED INSIDE WALMART DURING TAX SEASON,MARIA SATTIZAHN,2,(407)691-0004,LICENSED,11/15/2017 0:00,10/31/2020 0:00, 
180004120,NATIONWIDE BENEFTIS GROUP LLC,BENEFIT TAX SOLUTIONS,15770 LAGUNA CANYON RD STE 250,"IRVINE, CA  92618-7710",Other Services (except Public Administration),81,TAX SERVICES,DAIN NIVEN,1,(800)210-9810,BILLED,12/11/2018 0:00,11/30/2019 0:00, 
190004637,D TAX LLC, ,20 TRUMAN ST STE 103,"IRVINE, CA  92620-5758","Professional, Scientific, and Technical Services",541211,TAX SERVICES,NICOLE DAVIS,3,(949)400-6443,PENDING,11/20/2019 0:00,10/31/2020 0:00, 
180000348,SOCAL TAX SERVICES,ATTN  SAM KWOK,PO BOX 61650,"IRVINE, CA  92602-6055","Professional, Scientific, and Technical Services",541213,TAX SERVICES,SAM KWOK,1,(714)793-8498,PENDING,1/27/2018 0:00,12/31/2019 0:00, 
170002237,RYAN & YVAINE TAX ASSOCIATES,ATTN YANLI WU,24 NATURE,"IRVINE, CA  92620-3828","Professional, Scientific, and Technical Services",541213,TAX SERVICES,YANLI WU,1,(949)800-9597,LICENSED,6/28/2017 0:00,5/31/2020 0:00, 
160001312,GUOTAX SERVICES, ,67 SCONSET LN,"IRVINE, CA  92620-1226","Professional, Scientific, and Technical Services",541213,TAX SERVICES -  PERSONAL AND BUSINESS,YAFEI GUO,1,(626)734-5595,BILLED,4/9/2016 0:00,3/31/2018 0:00, 
